[{"OBJECT_NAME":"TEVEL2-5","OBJECT_ID":"2025-052E","EPOCH":"2026-03-09T23:11:54.246048","MEAN_MOTION":15.30817434,"ECCENTRICITY":0.00047002,"INCLINATION":97.4013,"RA_OF_ASC_NODE":325.3677,"ARG_OF_PERICENTER":95.3936,"MEAN_ANOMALY":264.7842,"EPHEMERIS_TYPE":0,"CLASSIFICATION_TYPE":"U","NORAD_CAT_ID":63214,"ELEMENT_SET_NO":999,"REV_AT_EPOCH":5491,"BSTAR":0.00071764727,"MEAN_MOTION_DOT":0.00021339,"MEAN_MOTION_DDOT":0},{"OBJECT_NAME":"STARLINK-35918","OBJECT_ID":"2025-271AC","EPOCH":"2026-03-09T11:09:30.463488","MEAN_MOTION":15.30148636,"ECCENTRICITY":0.00011337,"INCLINATION":53.1591,"RA_OF_ASC_NODE":140.8755,"ARG_OF_PERICENTER":73.15,"MEAN_ANOMALY":286.9625,"EPHEMERIS_TYPE":0,"CLASSIFICATION_TYPE":"U","NORAD_CAT_ID":66643,"ELEMENT_SET_NO":999,"REV_AT_EPOCH":1753,"BSTAR":0.00014467607,"MEAN_MOTION_DOT":3.921e-5,"MEAN_MOTION_DDOT":0}]
