TEVEL2-5                
1 63214U 25052E   26068.96660006  .00021339  00000+0  71765-3 0  9991
2 63214  97.4013 325.3677 0004700  95.3936 264.7842 15.30817434 54919
STARLINK-35918          
1 66643U 25271AC  26068.46493592  .00003921  00000+0  14468-3 0  9996
2 66643  53.1591 140.8755 0001133  73.1500 286.9625 15.30148636 17536
